1 90000           19337.16666667 -.00000185  00000-0 -21417-3 0 00003
2 90000 099.4356 146.6159 0010034 271.3476 252.7956 13.69118898000018
1 90001           19337.16666667 -.00000254  00000-0 -29374-3 0 00001
2 90001 099.4355 146.6159 0010026 271.4455 282.6978 13.69118952000014
1 90002           19337.16666667  .00000111  00000-0  12848-3 0 00000
2 90002 099.4355 146.6159 0010008 271.5164 312.6272 13.69118589000010
1 90003           19337.16666667  .00000604  00000-0  69900-3 0 00009
2 90003 099.4355 146.6158 0009985 271.5108 342.6330 13.69118138000018
1 90004           19337.16666667  .00000727  00000-0  84122-3 0 00009
2 90004 099.4355 146.6158 0009968 271.4329 012.7109 13.69118085000014
1 90005           19337.16666667  .00000289  00000-0  33443-3 0 00003
2 90005 099.4356 146.6158 0009962 271.3337 042.8097 13.69118576000013
1 90006           19337.16666667 -.00000384  00000-0 -44477-3 0 00001
2 90006 099.4356 146.6159 0009962 271.2369 072.9060 13.69119247000019
1 90007           19337.16666667 -.00000747  00000-0 -86446-3 0 00007
2 90007 099.4355 146.6159 0009970 271.1385 103.0042 13.69119553000011
1 90008           19337.16666667 -.00000544  00000-0 -62931-3 0 00006
2 90008 099.4355 146.6159 0009988 271.0684 133.0745 13.69119280000012
1 90009           19337.16666667 -.00000037  00000-0 -42966-4 0 00001
2 90009 099.4355 146.6158 0010011 271.0756 163.0678 13.69118735000013
1 90010           19337.16666667  .00000271  00000-0  31373-3 0 00000
2 90010 099.4355 146.6158 0010028 271.1539 192.9898 13.69118428000017
1 90011           19337.16666667  .00000141  00000-0  16294-3 0 00002
2 90011 099.4356 146.6158 0010034 271.2521 222.8914 13.69118572000010
